     2.11           N: GPS NAV DATA                         RINEX VERSION / TYPE
teqc  2018Mar15                         20180319 14:17:33UTCPGM / RUN BY / DATE
Linux 2.6.32-573.12.1.x86_64|x86_64|gcc -static|Linux 64|=+ COMMENT
    1.1176D-08  7.4506D-09 -5.9605D-08 -5.9605D-08          ION ALPHA
    9.0112D+04  0.0000D+00 -1.9661D+05 -6.5536D+04          ION BETA
   -1.862645149231D-09-2.664535259100D-15   405504      200 DELTA-UTC: A0,A1,T,W
                                                            END OF HEADER
10 18  3 13 14  0  0.0 1.697158440948D-04 3.865352482535D-12 0.000000000000D+00
    6.500000000000D+01-4.065625000000D+01 4.340180785951D-09-8.680302060394D-01
   -2.060085535049D-06 3.372779348865D-03 1.106970012188D-05 5.153671737671D+03
    2.232000000000D+05 5.774199962616D-08-3.306305645930D-01 2.048909664154D-08
    9.612723838932D-01 1.641875000000D+02-2.792568988222D+00-7.833183426389D-09
    3.035840740667D-10 1.000000000000D+00 1.992000000000D+03 0.000000000000D+00
    2.000000000000D+00 0.000000000000D+00 1.862645149231D-09 6.500000000000D+01
    2.209620000000D+05 4.000000000000D+00
12 18  3 13 13 59 44.0 3.455751575530D-04-2.046363078989D-12 0.000000000000D+00
    4.000000000000D+00 6.734375000000D+01 3.715511908842D-09-6.685889355843D-02
    3.505498170853D-06 7.071827421896D-03 1.001358032227D-05 5.153634155273D+03
    2.231840000000D+05 1.490116119385D-08 2.875916574818D+00 1.620501279831D-07
    9.875068835683D-01 2.008750000000D+02 9.339726092166D-01-7.721393055585D-09
   -7.536028191537D-11 1.000000000000D+00 1.992000000000D+03 0.000000000000D+00
    2.000000000000D+00 0.000000000000D+00-1.257285475731D-08 4.000000000000D+00
    2.209920000000D+05 4.000000000000D+00
17 18  3 13 13 59 44.0-1.160735264421D-04 3.183231456205D-12 0.000000000000D+00
    6.000000000000D+00 5.040625000000D+01 4.004809673541D-09-3.017505971556D+00
    2.676621079445D-06 1.231432752684D-02 3.695487976074D-06 5.153776788712D+03
    2.231840000000D+05 1.564621925354D-07-2.373349868646D+00-6.146728992462D-08
    9.822037762726D-01 3.183125000000D+02-1.784248142171D+00-7.822825852097D-09
    2.657253542419D-10 1.000000000000D+00 1.992000000000D+03 0.000000000000D+00
    2.000000000000D+00 0.000000000000D+00-1.117587089539D-08 6.000000000000D+00
    2.209380000000D+05 4.000000000000D+00
22 18  3 13 14  0  0.0-3.216620534658D-04-1.296029950026D-11 0.000000000000D+00
    8.100000000000D+01-5.221875000000D+01 5.194144928414D-09 2.739712611090D+00
   -2.851709723473D-06 7.377063157037D-03 1.060590147972D-05 5.153573303223D+03
    2.232000000000D+05 1.434236764908D-07-3.838727029818D-01-7.823109626770D-08
    9.251484819306D-01 1.576875000000D+02-1.597614132870D+00-8.131052976708D-09
    1.621496113250D-10 1.000000000000D+00 1.992000000000D+03 0.000000000000D+00
    2.000000000000D+00 0.000000000000D+00-1.769512891769D-08 8.100000000000D+01
    2.209680000000D+05 4.000000000000D+00
28 18  3 13 14  0  0.0 6.966679356992D-04 3.296918293927D-12 0.000000000000D+00
    3.100000000000D+01 6.115625000000D+01 3.519075155034D-09-2.012567184370D+00
    3.254041075706D-06 1.961386983749D-02 1.005083322525D-05 5.153681768417D+03
    2.232000000000D+05 3.185123205185D-07 2.899101374523D+00 2.756714820862D-07
    9.868098396765D-01 1.986875000000D+02-1.523542820577D+00-7.346377434679D-09
   -1.321483616526D-10 1.000000000000D+00 1.992000000000D+03 0.000000000000D+00
    4.000000000000D+00 0.000000000000D+00-1.117587089539D-08 3.100000000000D+01
    2.209680000000D+05 4.000000000000D+00
11 18  3 13 14  0  0.0-7.373057305813D-04-2.273736754432D-13 0.000000000000D+00
    8.200000000000D+01-3.134375000000D+01 6.197758161505D-09 4.927056844951D-01
   -1.821666955948D-06 1.673095731530D-02 2.199783921242D-06 5.153615062714D+03
    2.232000000000D+05-1.173466444016D-07-1.792201315327D+00-1.844018697739D-07
    9.041171078780D-01 3.095000000000D+02 1.743884865999D+00-9.400748721775D-09
   -4.678766317969D-11 1.000000000000D+00 1.992000000000D+03 0.000000000000D+00
    2.000000000000D+00 0.000000000000D+00-1.210719347000D-08 8.200000000000D+01
    2.180280000000D+05 4.000000000000D+00
19 18  3 13 14  0  0.0-4.511307924986D-04 2.614797267597D-12 0.000000000000D+00
    4.500000000000D+01 4.171875000000D+01 4.157673183777D-09 1.595004221185D-02
    2.281740307808D-06 9.748507989570D-03 3.777444362640D-06 5.153702674866D+03
    2.232000000000D+05-1.136213541031D-07-2.326198967113D+00 1.676380634308D-07
    9.796317980537D-01 3.186875000000D+02 1.135943791681D+00-8.215342201978D-09
    2.467959943295D-10 1.000000000000D+00 1.992000000000D+03 0.000000000000D+00
    2.000000000000D+00 0.000000000000D+00-1.536682248116D-08 4.500000000000D+01
    2.209680000000D+05 4.000000000000D+00
32 18  3 13 14  0  0.0-5.286289379001D-04 2.160049916711D-12 0.000000000000D+00
    6.500000000000D+01 2.950000000000D+01 4.968421240402D-09-2.100067146900D+00
    1.611188054085D-06 1.805363339372D-03 6.593763828278D-06 5.153637493134D+03
    2.232000000000D+05 5.587935447693D-08 7.113414466379D-01-3.725290298462D-08
    9.573838349939D-01 2.502187500000D+02-2.666652047916D+00-8.190341160585D-09
    3.085842823454D-10 1.000000000000D+00 1.992000000000D+03 0.000000000000D+00
    2.000000000000D+00 0.000000000000D+00 4.656612873077D-10 6.500000000000D+01
    2.209380000000D+05 4.000000000000D+00
14 18  3 13 14  0  0.0-9.507406502962D-05-4.547473508865D-13 0.000000000000D+00
    7.100000000000D+01 2.943750000000D+01 4.844487506636D-09 3.045811787681D+00
    1.519918441772D-06 9.442996699363D-03 6.215646862984D-06 5.153738273621D+03
    2.232000000000D+05 9.313225746155D-08 7.959186319715D-01-1.583248376846D-07
    9.612548537459D-01 2.573125000000D+02-1.958429767912D+00-8.006762085208D-09
    2.221521106700D-10 1.000000000000D+00 1.992000000000D+03 0.000000000000D+00
    2.000000000000D+00 0.000000000000D+00-9.778887033463D-09 7.100000000000D+01
    2.209620000000D+05 4.000000000000D+00
24 18  3 13 13 59 44.0-4.721852019429D-05-4.547473508865D-13 0.000000000000D+00
    2.000000000000D+00-1.425000000000D+01 5.252361639088D-09 1.450905944811D+00
   -6.128102540970D-07 6.879143184051D-03 6.850808858871D-06 5.153650949478D+03
    2.231840000000D+05-3.352761268616D-08 1.726621054595D+00 1.508742570877D-07
    9.419914864122D-01 2.386562500000D+02 5.357030353703D-01-8.422493687812D-09
   -5.250218692682D-10 1.000000000000D+00 1.992000000000D+03 0.000000000000D+00
    2.000000000000D+00 0.000000000000D+00 2.793967723846D-09 2.000000000000D+00
    2.209380000000D+05 4.000000000000D+00
 1 18  3 13 14  0  0.0-3.390712663531D-05-2.273736754432D-12 0.000000000000D+00
    5.300000000000D+01-8.196875000000D+01 4.445185159804D-09 1.214527177818D+00
   -4.367902874947D-06 7.437185617164D-03 4.749745130539D-06 5.153673799515D+03
    2.232000000000D+05-4.284083843231D-08-1.370026325884D+00 4.656612873077D-08
    9.701384647440D-01 2.933750000000D+02 6.114269184425D-01-8.239271770169D-09
   -2.164375869228D-10 1.000000000000D+00 1.992000000000D+03 0.000000000000D+00
    2.000000000000D+00 0.000000000000D+00 5.587935447693D-09 5.300000000000D+01
    2.209620000000D+05 4.000000000000D+00
28 18  3 13 13 59 44.0 6.966772489250D-04 3.524291969370D-12 0.000000000000D+00
    7.000000000000D+01 6.115625000000D+01 3.519789470502D-09-2.014900913214D+00
    3.254041075706D-06 1.961387484334D-02 1.005083322525D-05 5.153681772232D+03
    2.231840000000D+05 3.185123205185D-07 2.899101510575D+00 2.756714820862D-07
    9.868098323619D-01 1.986875000000D+02-1.523542797170D+00-7.346377434679D-09
   -1.321483616526D-10 1.000000000000D+00 1.992000000000D+03 0.000000000000D+00
    2.000000000000D+00 0.000000000000D+00-1.117587089539D-08 7.000000000000D+01
    2.217960000000D+05 4.000000000000D+00
 3 18  3 13 14  0  0.0 2.777576446533D-05 8.185452315956D-12 0.000000000000D+00
    5.000000000000D+00-4.200000000000D+01 4.429113061766D-09 3.808730143298D-01
   -2.212822437286D-06 1.208573346958D-03 1.109205186367D-05 5.153545282364D+03
    2.232000000000D+05 3.911554813385D-08-3.271348984359D-01-1.676380634308D-08
    9.611650905555D-01 1.708437500000D+02 4.247630524461D-01-7.871399303948D-09
    2.078658013021D-10 1.000000000000D+00 1.992000000000D+03 0.000000000000D+00
    2.000000000000D+00 0.000000000000D+00 2.328306436539D-09 5.000000000000D+00
    2.227080000000D+05 4.000000000000D+00
